# From MPEC 2026-FC3
P/1996 R2 (Lagerkvist),e,2.5997,39.9892,333.5627,3.771317,0.1345750,0.31403508,348.5468,03/23.0/2026,2000,g 11.5,4.0
# From MPEC 2026-FC3
P/1999 XN120 (Catalina),e,5.0290,285.2692,161.3954,4.193295,0.1147812,0.21351255,10.5995,03/23.0/2026,2000,g 13.5,2.0
# From MPEC 2026-FC5
C/2000 O1 (Koehn),h,01/23.0460/2000,148.2467,89.0205,55.4611,1.000177,5.966429,2000,6.0,4.0
# From MPEC 2026-FC5
C/2000 OF8 (Spacewatch),h,08/04.1027/2001,151.8380,116.8690,255.5383,1.005314,2.129104,2000,9.5,4.0
# From MPEC 2026-FC5
P/2000 R2 (LINEAR),e,11.6863,160.2220,176.6606,3.468412,0.1525836,0.53026945,16.9804,03/23.0/2026,2000,g 18.0,4.0
# From MPEC 2026-FC5
C/2000 S3 (LONEOS),e,25.0971,40.6723,298.6504,11.68002,0.0246910,0.77163581,231.5452,03/23.0/2026,2000,g 12.0,4.0
# From MPEC 2026-FC5
C/2000 SV74 (LINEAR),h,05/10.4544/2002,75.4187,24.2447,75.9587,1.000754,3.505308,2000,5.5,4.0
# From MPEC 2026-FC5
C/2000 U5 (LINEAR),h,03/04.7993/2000,93.4324,64.9445,298.8862,1.006074,3.502476,2000,7.0,4.0
# From MPEC 2026-FC5
C/2000 WM1 (LINEAR),h,01/22.0509/2002,72.6039,238.7293,276.4374,1.000145,0.544556,2000,7.5,4.0
# From MPEC 2026-FC5
C/2000 Y1 (Tubbiolo),h,01/23.5803/2001,138.0772,239.2676,181.8198,1.000941,8.032831,2000,11.0,2.0
# From MPEC 2026-FC5
C/2000 Y2 (Skiff),e,12.0825,185.8869,326.6649,491.7137,0.0000904,0.99443617,0.0000,03/22.2840/2001,2000,g 11.0,4.0
# From MPEC 2026-FC5
C/2001 A1 (LINEAR),e,59.9587,339.4097,107.7430,223.3962,0.0002952,0.98938836,0.0000,09/26.2056/2000,2000,g 10.5,4.0
# From MPEC 2026-FC5
C/2001 A2-A,e,36.3684,295.8044,294.8634,180071,0.0000000,0.99999560,0.0000,05/11.6550/2001,2000,g 13.3,4.0
# From MPEC 2026-FC5
C/2001 A2-B,e,36.3570,295.8104,294.8679,998.6922,0.0000312,0.99920742,0.0000,05/11.5932/2001,2000,g 11.5,4.0
# From MPEC 2026-FC5
C/2001 B1 (LINEAR),h,09/06.9507/2000,104.0441,49.5364,284.8206,1.000251,2.956046,2000,9.0,4.0
# From MPEC 2026-FC5
C/2001 B2 (NEAT),e,150.6724,144.9372,304.5335,2642,0.0000073,0.99800269,0.0000,08/29.0618/2000,2000,g  4.0,4.0
# From MPEC 2026-FC5
C/2001 C1 (LINEAR),h,03/13.3473/2002,68.8003,33.7180,220.0502,1.000727,5.126160,2000,6.0,4.0
# From MPEC 2026-FC5
C/2001 G1 (LONEOS),h,10/06.6385/2001,45.3425,203.9764,343.0678,1.000224,8.187946,2000,3.5,4.0
# From MPEC 2026-FC5
P/2001 H5 (NEAT),e,8.3721,328.7368,224.5334,6.092799,0.0655358,0.59982208,250.3519,03/23.0/2026,2000,g 12.0,4.0
# From MPEC 2026-FC5
C/2001 HT50 (LINEAR-NEAT),e,163.2422,42.6407,323.9285,852.7017,0.0000396,0.99667697,0.0000,06/27.7741/2003,2000,g  4.5,4.0
# From MPEC 2026-FC5
C/2001 K3 (Skiff),e,51.7246,289.9673,3.5063,1652,0.0000147,0.99812780,0.0000,04/12.7207/2001,2000,g  8.5,4.0
# From MPEC 2026-FC5
C/2001 K5 (LINEAR),h,09/29.0665/2002,72.3328,237.4296,47.2120,1.000411,5.211338,2000,4.0,4.0
# From MPEC 2026-FC5
C/2001 M10 (NEAT),e,27.9575,293.9381,5.6169,26.70925,0.0071402,0.79929052,64.6886,03/23.0/2026,2000,g  8.0,4.0
# From MPEC 2026-FC5
C/2001 N2 (LINEAR),e,138.4207,53.2329,152.0594,8412,0.0000013,0.99968666,0.0000,08/23.7810/2002,2000,g  7.5,4.0
# From MPEC 2026-FC5
C/2001 O2 (NEAT),e,90.9665,328.8934,281.0165,2556,0.0000076,0.99809904,0.0000,10/04.1902/1999,2000,g  6.0,4.0
# From MPEC 2026-FC5
C/2001 OG108 (LONEOS),e,80.2409,10.7110,116.4176,13.24803,0.0204398,0.92582897,179.4650,03/23.0/2026,2000,g 11.0,4.0
# From MPEC 2026-FC5
C/2001 Q1 (NEAT),e,66.7837,139.3656,175.5809,169.1103,0.0004482,0.96521312,4.0142,03/23.0/2026,2000,g  7.0,4.0
# From MPEC 2026-FC5
C/2001 Q4 (NEAT),h,05/06.3247/2004,99.3250,210.4281,1.1375,1.000591,0.954182,2000,3.5,4.0
# From MPEC 2026-FC5
C/2001 RX14 (LINEAR),e,30.5999,14.2292,121.0609,3478,0.0000048,0.99942023,0.0000,01/22.1065/2003,2000,g  6.5,4.0
# From MPEC 2026-FC5
C/2001 U6 (LINEAR),e,107.4426,115.5311,85.8747,1000,0.0000312,0.99557238,0.0000,08/03.2553/2002,2000,g  7.5,4.0
# From MPEC 2026-FC5
C/2001 W2 (BATTERS),e,115.5590,113.6497,142.2310,17.77656,0.0131502,0.94071588,116.4171,03/23.0/2026,2000,g 11.0,4.0
# From MPEC 2026-FC5
C/2001 X1 (LINEAR),e,115.7433,336.1435,202.3245,540.3765,0.0000785,0.99682610,0.0000,12/23.7254/2001,2000,g 11.0,4.0
# From MPEC 2026-FC5
C/2002 A1 (LINEAR),e,14.0770,81.0436,18.7312,16.04313,0.0153381,0.70974307,136.1623,03/23.0/2026,2000,g 12.5,2.0
# From MPEC 2026-FC5
C/2002 A2 (LINEAR),e,14.0454,81.0521,19.0870,15.89785,0.0155488,0.70739102,137.9246,03/23.0/2026,2000,g 11.0,2.0
# From MPEC 2026-FC5
C/2002 A3 (LINEAR),e,48.6331,136.1820,329.3862,163.1279,0.0004731,0.96866921,4.1303,03/23.0/2026,2000,g  6.5,4.0
# From MPEC 2026-FC5
C/2002 B1 (LINEAR),e,51.0176,58.3338,76.0209,9.873346,0.0317693,0.77065514,278.0813,03/23.0/2026,2000,g 11.5,4.0
# From MPEC 2026-FC5
C/2002 C2 (LINEAR),e,105.1047,242.6762,159.8833,1886,0.0000120,0.99826139,0.0000,04/05.4017/2002,2000,g  8.5,4.0
# From MPEC 2026-FC5
C/2002 CE10 (LINEAR),e,145.3685,147.5685,126.2514,9.765299,0.0322980,0.78956415,268.1686,03/23.0/2026,2000,g 13.0,2.0
# From MPEC 2026-FC5
C/2002 E2 (Snyder-Murakami),h,02/13.7230/2002,91.9833,244.6854,9.0565,1.000581,1.465935,2000,7.5,4.0
# From MPEC 2026-FC5
P/2002 EJ57 (LINEAR),e,4.9916,330.2176,167.3085,6.454277,0.0601081,0.59422652,170.1742,03/23.0/2026,2000,g 12.5,4.0
# From MPEC 2026-FC5
C/2002 H2 (LINEAR),e,109.8982,269.0101,20.4189,258.4324,0.0002372,0.99369967,0.0000,03/20.6250/2002,2000,g 10.5,4.0
# From MPEC 2026-FC5
C/2002 J4 (NEAT),h,09/20.8422/2003,46.2621,70.7844,231.0418,1.001238,3.678597,2000,5.5,4.0
# From MPEC 2026-FC5
C/2002 J5 (LINEAR),h,09/24.4605/2003,117.0086,313.9577,74.7706,1.000384,5.702176,2000,11.0,2.0
# From MPEC 2026-FC5
C/2002 K1 (NEAT),e,89.3146,280.7073,4.5334,3841,0.0000041,0.99915673,0.0000,06/13.3859/2002,2000,g 10.0,4.0
# From MPEC 2026-FC5
C/2002 K2 (LINEAR),e,130.6472,294.6059,26.6585,576.1184,0.0000713,0.99094987,0.0000,01/11.9406/2002,2000,g 12.0,2.0
# From MPEC 2026-FC5
C/2002 K4 (NEAT),e,93.7912,307.9851,24.4745,17.41511,0.0135617,0.84107572,117.3398,03/23.0/2026,2000,g 10.5,4.0
# From MPEC 2026-FC5
C/2002 L9 (NEAT),h,04/03.2208/2004,68.1807,110.4272,231.6598,1.000461,7.067913,2000,8.5,2.0
# From MPEC 2026-FC5
C/2002 O4 (Hoenig),h,10/05.8565/2002,73.1916,320.4358,105.8174,1.000287,0.755911,2000,9.5,4.0
# From MPEC 2026-FC5
C/2002 O7 (LINEAR),h,09/10.2588/2003,98.6243,12.7193,252.2035,1.000245,0.924933,2000,6.5,4.0
# From MPEC 2026-FC5
C/2002 P1 (NEAT),e,34.5000,310.8332,347.8912,454.5012,0.0001017,0.98549244,0.0000,11/09.6987/2001,2000,g  6.0,4.0
# From MPEC 2026-FC5
C/2002 Q5 (LINEAR),h,11/21.8882/2002,149.1173,34.3810,133.6167,1.001128,1.214031,2000,9.0,4.0
# From MPEC 2026-FC5
C/2002 R3 (LONEOS),h,06/15.1919/2003,161.2003,54.3402,45.2400,1.000839,3.900619,2000,8.0,4.0
# From MPEC 2026-FC5
C/2002 T7 (LINEAR),h,04/28.7155/2004,160.1633,95.9842,158.6327,1.000474,0.598121,2000,4.0,4.0
# From MPEC 2026-FC5
C/2002 U2 (LINEAR),e,59.2448,39.1819,95.3949,1517,0.0000167,0.99922124,0.0000,01/04.2222/2003,2000,g 13.0,4.0
# From MPEC 2026-FC5
C/2002 V1 (NEAT),e,79.8563,65.3128,151.9995,969.5252,0.0000326,0.99989813,0.0000,02/10.1095/2003,2000,g  8.0,4.0
# From MPEC 2026-FC5
C/2002 V2 (LINEAR),e,166.7681,20.1719,314.7473,2682,0.0000071,0.99743756,0.0000,04/30.4423/2003,2000,g  6.0,4.0
# From MPEC 2026-FC5
C/2002 VQ94 (LINEAR),e,70.6074,35.0365,99.8205,187.6780,0.0003833,0.96403219,2.8147,03/23.0/2026,2000,g  9.5,2.0
# From MPEC 2026-FC5
C/2002 X1 (LINEAR),e,164.2140,281.9135,207.4784,863.9009,0.0000388,0.99707614,0.0000,07/02.8638/2003,2000,g  8.0,4.0
# From MPEC 2026-FC5
C/2002 X5 (Kudo-Fujikawa),e,92.4208,119.0416,187.7515,3071,0.0000058,0.99993690,0.0000,01/29.3323/2003,2000,g  8.5,4.0
# From MPEC 2026-FC5
C/2002 Y1 (Juels-Holvorcem),e,103.6227,166.4297,129.0407,229.4221,0.0002836,0.99680067,0.0000,04/11.8873/2003,2000,g  6.5,4.0
# From MPEC 2026-FC5
C/2003 A2 (Gleason),e,8.0714,154.4456,346.5791,9476,0.0000011,0.99880054,0.0000,11/09.4890/2003,2000,g  3.5,4.0
# From MPEC 2026-FC5
C/2003 E1 (NEAT),e,33.4919,137.2398,103.7992,13.76994,0.0192888,0.76209936,156.2186,03/23.0/2026,2000,g 12.5,2.0
# From MPEC 2026-FC5
C/2003 F1 (LINEAR),e,70.1629,87.7925,121.0699,20.54248,0.0105858,0.80493516,87.9824,03/23.0/2026,2000,g  7.0,4.0
# From MPEC 2026-FC5
P/2003 F2 (NEAT),e,11.5636,358.9331,193.1409,6.557129,0.0586994,0.53569173,136.5273,03/23.0/2026,2000,g 16.5,2.0
# From MPEC 2026-FC5
C/2003 G1 (LINEAR),h,01/24.8882/2003,66.6036,246.2376,11.4644,1.001681,4.928066,2000,5.0,4.0
# From MPEC 2026-FC5
C/2003 H1 (LINEAR),e,138.5917,19.0939,196.0485,1714,0.0000139,0.99869956,0.0000,02/11.6501/2004,2000,g  6.5,4.0
# From MPEC 2026-FC5
C/2003 H2 (LINEAR),e,73.8941,80.1602,155.0805,38.16496,0.0041803,0.94275363,34.9205,03/23.0/2026,2000,g 13.0,4.0
# From MPEC 2026-FC5
C/2003 H3 (NEAT),h,04/11.5481/2003,42.5145,269.5814,6.5980,1.000488,2.936517,2000,9.5,4.0
# From MPEC 2026-FC5
C/2003 J1 (NEAT),e,98.0044,122.1403,196.1750,566.9066,0.0000730,0.99093639,0.0000,10/11.6648/2003,2000,g  7.0,4.0
# From MPEC 2026-FC5
C/2003 K4 (LINEAR),h,10/01.5613/2004,134.1367,18.7319,198.3816,1.000075,1.021585,2000,3.5,4.0
# From MPEC 2026-FC5
C/2003 L2 (LINEAR),e,82.0511,273.0806,119.8349,148.5452,0.0005444,0.98069618,0.0000,01/16.7650/2004,2000,g 10.0,4.0
# From MPEC 2026-FC5
C/2003 O1 (LINEAR),e,117.9104,347.5447,81.6350,27976,0.0000002,0.99975631,0.0000,03/26.8678/2004,2000,g  6.0,4.0
# From MPEC 2026-FC5
C/2003 R1 (LINEAR),e,149.1590,356.7439,302.7511,19.54420,0.0114071,0.89106117,94.7547,03/23.0/2026,2000,g 15.0,2.0
# From MPEC 2026-FC5
C/2003 S3 (LINEAR),h,03/27.5619/2003,151.5008,226.2536,154.5623,1.000662,8.191123,2000,5.5,4.0
# From MPEC 2026-FC5
C/2003 S4-A,e,40.7640,224.3174,155.5964,36.99132,0.0043808,0.89461582,34.8912,03/23.0/2026,2000,g 14.7,4.0
# From MPEC 2026-FC5
C/2003 S4-B,e,40.4493,224.2969,153.9620,40.10784,0.0038803,0.90367839,30.9359,03/23.0/2026,2000,g 14.8,4.0
# From MPEC 2026-FC5
C/2003 T2 (LINEAR),e,87.8183,238.1278,152.2776,1591,0.0000155,0.99886635,0.0000,11/12.8920/2003,2000,g 11.5,4.0
# From MPEC 2026-FC5
